STARLINK-30523          
1 57997U 23153G   26068.01230114  .00000351  00000+0  22765-4 0  9999
2 57997  43.0041  70.8064 0001320 255.6491 104.4214 15.26734967134794
FLOCK 4G-3              
1 62639U 25009AG  26068.80174065  .00011494  00000+0  43389-3 0  9993
2 62639  97.4062 151.4068 0001320 293.2042  66.9058 15.27179310 63727
